RASSVET-3 10            
1 68369U 26061K   26100.29018287  .00067485  46343-6  22054-3 0  9995
2 68369  82.2975  88.8029 0024045   9.0390 351.1309 15.89961766  2796
RASSVET-3 11            
1 68370U 26061L   26100.28973291  .00065866  38878-6  21505-3 0  9996
2 68370  82.2975  88.8019 0023866   8.9389 351.2302 15.89985102  2797
RASSVET-3 12            
1 68371U 26061M   26100.28909395  .00122266  41309-5  39518-3 0  9994
2 68371  82.2973  88.8011 0023512   8.8579 351.3103 15.90247483  2791
RASSVET-3 13            
1 68372U 26061N   26100.28879953  .00122180  41295-5  39314-3 0  9994
2 68372  82.2971  88.8004 0023156   8.8137 351.3537 15.90349489  2796
RASSVET-3 14            
1 68373U 26061P   26100.28801887  .00121356  40633-5  38878-3 0  9999
2 68373  82.2972  88.7995 0023087   8.6059 351.5604 15.90437951  2799
RASSVET-3 15            
1 68374U 26061Q   26100.22457744  .00123249  42384-5  39169-3 0  9995
2 68374  82.2969  88.8699 0022727   8.9586 351.2086 15.90610263  2785
RASSVET-3 16            
1 68375U 26061R   26100.29249165  .00081911  00000+0  36757-3 0  9991
2 68375  82.2951  88.8033 0021937  16.8431 343.3561 15.83491547  2793
SUPERVIEW NEO-2 OBJECT A
1 68377U 26062A   26100.26585028  .00002831  00000+0  13564-3 0  9997
2 68377  97.4382 108.5409 0003920 192.6599 167.4538 15.19743473  2334
SUPERVIEW NEO-2 OBJECT B
1 68378U 26062B   26100.26555190  .00002861  00000+0  13701-3 0  9991
2 68378  97.4366 108.5389 0006225 206.5601 153.5316 15.19740629  2334
STARLINK-36296          
1 68380U 26063A   26100.05224544 -.01911812  00000+0 -52981-2 0  9998
2 68380  97.2789 241.3172 0012839 352.6241   7.4842 15.94812320  2580
STARLINK-37111          
1 68381U 26063B   26100.23253592  .00362029  00000+0  17999-2 0  9991
2 68381  97.2826 241.5176 0001248  60.2640 299.8753 15.80980656  2600
STARLINK-36946          
1 68382U 26063C   26100.25001157 -.00004203  00000+0 -21222-4 0  9997
2 68382  97.2829 241.5386 0001095  93.9992   9.8066 15.80807412  3537
STARLINK-37121          
1 68383U 26063D   26100.25001157  .00017554  00000+0  92243-4 0  9990
2 68383  97.2825 241.5425 0001289  88.4622  23.8855 15.80805499  3537
STARLINK-37137          
1 68384U 26063E   26100.25001157 -.00087059  00000+0 -58860-3 0  9996
2 68384  97.2836 241.5257 0001286  76.0168 359.9719 15.75196621  3534
STARLINK-37128          
1 68385U 26063F   26100.25001157  .00075244  00000+0  39064-3 0  9993
2 68385  97.2826 241.5451 0001301 108.0793   8.5426 15.80790676  3480
