[{"OBJECT_NAME":"RASSVET-3 10","OBJECT_ID":"2026-061K","EPOCH":"2026-04-10T06:57:51.799968","MEAN_MOTION":15.89961766,"ECCENTRICITY":0.00240452,"INCLINATION":82.2975,"RA_OF_ASC_NODE":88.8029,"ARG_OF_PERICENTER":9.039,"MEAN_ANOMALY":351.1309,"EPHEMERIS_TYPE":0,"CLASSIFICATION_TYPE":"U","NORAD_CAT_ID":68369,"ELEMENT_SET_NO":999,"REV_AT_EPOCH":279,"BSTAR":0.00022054472,"MEAN_MOTION_DOT":0.00067485,"MEAN_MOTION_DDOT":4.63432e-7},{"OBJECT_NAME":"RASSVET-3 11","OBJECT_ID":"2026-061L","EPOCH":"2026-04-10T06:57:12.923424","MEAN_MOTION":15.89985102,"ECCENTRICITY":0.00238661,"INCLINATION":82.2975,"RA_OF_ASC_NODE":88.8019,"ARG_OF_PERICENTER":8.9389,"MEAN_ANOMALY":351.2302,"EPHEMERIS_TYPE":0,"CLASSIFICATION_TYPE":"U","NORAD_CAT_ID":68370,"ELEMENT_SET_NO":999,"REV_AT_EPOCH":279,"BSTAR":0.00021505354,"MEAN_MOTION_DOT":0.00065866,"MEAN_MOTION_DDOT":3.88777e-7},{"OBJECT_NAME":"RASSVET-3 12","OBJECT_ID":"2026-061M","EPOCH":"2026-04-10T06:56:17.717280","MEAN_MOTION":15.90247483,"ECCENTRICITY":0.00235121,"INCLINATION":82.2973,"RA_OF_ASC_NODE":88.8011,"ARG_OF_PERICENTER":8.8579,"MEAN_ANOMALY":351.3103,"EPHEMERIS_TYPE":0,"CLASSIFICATION_TYPE":"U","NORAD_CAT_ID":68371,"ELEMENT_SET_NO":999,"REV_AT_EPOCH":279,"BSTAR":0.00039518116,"MEAN_MOTION_DOT":0.00122266,"MEAN_MOTION_DDOT":4.130933e-6},{"OBJECT_NAME":"RASSVET-3 13","OBJECT_ID":"2026-061N","EPOCH":"2026-04-10T06:55:52.279392","MEAN_MOTION":15.90349489,"ECCENTRICITY":0.00231563,"INCLINATION":82.2971,"RA_OF_ASC_NODE":88.8004,"ARG_OF_PERICENTER":8.8137,"MEAN_ANOMALY":351.3537,"EPHEMERIS_TYPE":0,"CLASSIFICATION_TYPE":"U","NORAD_CAT_ID":68372,"ELEMENT_SET_NO":999,"REV_AT_EPOCH":279,"BSTAR":0.00039314419,"MEAN_MOTION_DOT":0.0012218,"MEAN_MOTION_DDOT":4.129486e-6},{"OBJECT_NAME":"RASSVET-3 14","OBJECT_ID":"2026-061P","EPOCH":"2026-04-10T06:54:44.830368","MEAN_MOTION":15.90437951,"ECCENTRICITY":0.00230875,"INCLINATION":82.2972,"RA_OF_ASC_NODE":88.7995,"ARG_OF_PERICENTER":8.6059,"MEAN_ANOMALY":351.5604,"EPHEMERIS_TYPE":0,"CLASSIFICATION_TYPE":"U","NORAD_CAT_ID":68373,"ELEMENT_SET_NO":999,"REV_AT_EPOCH":279,"BSTAR":0.00038877826,"MEAN_MOTION_DOT":0.00121356,"MEAN_MOTION_DDOT":4.063308e-6},{"OBJECT_NAME":"RASSVET-3 15","OBJECT_ID":"2026-061Q","EPOCH":"2026-04-10T05:23:23.490816","MEAN_MOTION":15.90610263,"ECCENTRICITY":0.00227276,"INCLINATION":82.2969,"RA_OF_ASC_NODE":88.8699,"ARG_OF_PERICENTER":8.9586,"MEAN_ANOMALY":351.2086,"EPHEMERIS_TYPE":0,"CLASSIFICATION_TYPE":"U","NORAD_CAT_ID":68374,"ELEMENT_SET_NO":999,"REV_AT_EPOCH":278,"BSTAR":0.00039168743,"MEAN_MOTION_DOT":0.00123249,"MEAN_MOTION_DDOT":4.238446e-6},{"OBJECT_NAME":"RASSVET-3 16","OBJECT_ID":"2026-061R","EPOCH":"2026-04-10T07:01:11.278560","MEAN_MOTION":15.83491547,"ECCENTRICITY":0.00219377,"INCLINATION":82.2951,"RA_OF_ASC_NODE":88.8033,"ARG_OF_PERICENTER":16.8431,"MEAN_ANOMALY":343.3561,"EPHEMERIS_TYPE":0,"CLASSIFICATION_TYPE":"U","NORAD_CAT_ID":68375,"ELEMENT_SET_NO":999,"REV_AT_EPOCH":279,"BSTAR":0.00036757179,"MEAN_MOTION_DOT":0.00081911,"MEAN_MOTION_DDOT":0},{"OBJECT_NAME":"SUPERVIEW NEO-2 OBJECT A","OBJECT_ID":"2026-062A","EPOCH":"2026-04-10T06:22:49.464192","MEAN_MOTION":15.19743473,"ECCENTRICITY":0.00039208,"INCLINATION":97.4382,"RA_OF_ASC_NODE":108.5409,"ARG_OF_PERICENTER":192.6599,"MEAN_ANOMALY":167.4538,"EPHEMERIS_TYPE":0,"CLASSIFICATION_TYPE":"U","NORAD_CAT_ID":68377,"ELEMENT_SET_NO":999,"REV_AT_EPOCH":233,"BSTAR":0.00013563547,"MEAN_MOTION_DOT":2.831e-5,"MEAN_MOTION_DDOT":0},{"OBJECT_NAME":"SUPERVIEW NEO-2 OBJECT B","OBJECT_ID":"2026-062B","EPOCH":"2026-04-10T06:22:23.684160","MEAN_MOTION":15.19740629,"ECCENTRICITY":0.00062253,"INCLINATION":97.4366,"RA_OF_ASC_NODE":108.5389,"ARG_OF_PERICENTER":206.5601,"MEAN_ANOMALY":153.5316,"EPHEMERIS_TYPE":0,"CLASSIFICATION_TYPE":"U","NORAD_CAT_ID":68378,"ELEMENT_SET_NO":999,"REV_AT_EPOCH":233,"BSTAR":0.0001370145,"MEAN_MOTION_DOT":2.861e-5,"MEAN_MOTION_DDOT":0},{"OBJECT_NAME":"STARLINK-36296","OBJECT_ID":"2026-063A","EPOCH":"2026-04-10T01:15:14.006016","MEAN_MOTION":15.9481232,"ECCENTRICITY":0.00128396,"INCLINATION":97.2789,"RA_OF_ASC_NODE":241.3172,"ARG_OF_PERICENTER":352.6241,"MEAN_ANOMALY":7.4842,"EPHEMERIS_TYPE":0,"CLASSIFICATION_TYPE":"U","NORAD_CAT_ID":68380,"ELEMENT_SET_NO":999,"REV_AT_EPOCH":258,"BSTAR":-0.0052981485,"MEAN_MOTION_DOT":-0.01911812,"MEAN_MOTION_DDOT":0},{"OBJECT_NAME":"STARLINK-37111","OBJECT_ID":"2026-063B","EPOCH":"2026-04-10T05:34:51.103488","MEAN_MOTION":15.80980656,"ECCENTRICITY":0.00012481,"INCLINATION":97.2826,"RA_OF_ASC_NODE":241.5176,"ARG_OF_PERICENTER":60.264,"MEAN_ANOMALY":299.8753,"EPHEMERIS_TYPE":0,"CLASSIFICATION_TYPE":"U","NORAD_CAT_ID":68381,"ELEMENT_SET_NO":999,"REV_AT_EPOCH":260,"BSTAR":0.0017998582,"MEAN_MOTION_DOT":0.00362029,"MEAN_MOTION_DDOT":0},{"OBJECT_NAME":"STARLINK-36946","OBJECT_ID":"2026-063C","EPOCH":"2026-04-10T06:00:00.999648","MEAN_MOTION":15.80807412,"ECCENTRICITY":0.00010955,"INCLINATION":97.2829,"RA_OF_ASC_NODE":241.5386,"ARG_OF_PERICENTER":93.9992,"MEAN_ANOMALY":9.8066,"EPHEMERIS_TYPE":0,"CLASSIFICATION_TYPE":"U","NORAD_CAT_ID":68382,"ELEMENT_SET_NO":999,"REV_AT_EPOCH":353,"BSTAR":-2.122224e-5,"MEAN_MOTION_DOT":-4.203e-5,"MEAN_MOTION_DDOT":0},{"OBJECT_NAME":"STARLINK-37121","OBJECT_ID":"2026-063D","EPOCH":"2026-04-10T06:00:00.999648","MEAN_MOTION":15.80805499,"ECCENTRICITY":0.00012892,"INCLINATION":97.2825,"RA_OF_ASC_NODE":241.5425,"ARG_OF_PERICENTER":88.4622,"MEAN_ANOMALY":23.8855,"EPHEMERIS_TYPE":0,"CLASSIFICATION_TYPE":"U","NORAD_CAT_ID":68383,"ELEMENT_SET_NO":999,"REV_AT_EPOCH":353,"BSTAR":9.2242507e-5,"MEAN_MOTION_DOT":0.00017554,"MEAN_MOTION_DDOT":0},{"OBJECT_NAME":"STARLINK-37137","OBJECT_ID":"2026-063E","EPOCH":"2026-04-10T06:00:00.999648","MEAN_MOTION":15.75196621,"ECCENTRICITY":0.0001286,"INCLINATION":97.2836,"RA_OF_ASC_NODE":241.5257,"ARG_OF_PERICENTER":76.0168,"MEAN_ANOMALY":359.9719,"EPHEMERIS_TYPE":0,"CLASSIFICATION_TYPE":"U","NORAD_CAT_ID":68384,"ELEMENT_SET_NO":999,"REV_AT_EPOCH":353,"BSTAR":-0.00058859838,"MEAN_MOTION_DOT":-0.00087059,"MEAN_MOTION_DDOT":0},{"OBJECT_NAME":"STARLINK-37128","OBJECT_ID":"2026-063F","EPOCH":"2026-04-10T06:00:00.999648","MEAN_MOTION":15.80790676,"ECCENTRICITY":0.00013012,"INCLINATION":97.2826,"RA_OF_ASC_NODE":241.5451,"ARG_OF_PERICENTER":108.0793,"MEAN_ANOMALY":8.5426,"EPHEMERIS_TYPE":0,"CLASSIFICATION_TYPE":"U","NORAD_CAT_ID":68385,"ELEMENT_SET_NO":999,"REV_AT_EPOCH":348,"BSTAR":0.00039063759,"MEAN_MOTION_DOT":0.00075244,"MEAN_MOTION_DDOT":0}]
